NORAD_CAT_ID,OBJECT_NAME,OBJECT_TYPE,EPOCH,MEAN_MOTION,ECCENTRICITY,INCLINATION,RA_OF_ASC_NODE,ARG_OF_PERICENTER,MEAN_ANOMALY,BSTAR,MEAN_MOTION_DOT,MEAN_MOTION_DDOT,TLE_LINE0,TLE_LINE1,TLE_LINE2,SEMIMAJOR_AXIS,PERIOD,APOGEE,PERIGEE,DECAYED
51121.0,STARLINK-3399,PAYLOAD,2024-01-04 03:03:19,15.0883871,0.0001526,53.2165,260.5518,103.0275,257.0888,-2.3636e-05,-6.64e-06,0.0,0 STARLINK-3399,1 51121U 22005T   24004.12730653 -.00000664  00000-0 -23636-4 0  9998,2 51121  53.2165 260.5518 0001526 103.0275 257.0888 15.08838710109888,6917.884,95.438,540.805,538.694,0.0
51121.0,STARLINK-3399,PAYLOAD,2024-01-04 22:07:56,15.08837227,0.0001487,53.2166,256.9836,100.7763,259.3396,5.4611e-06,-2.01e-06,0.0,0 STARLINK-3399,1 51121U 22005T   24004.92218714 -.00000201  00000-0  54611-5 0  9999,2 51121  53.2166 256.9836 0001487 100.7763 259.3396 15.08837227108894,6917.889,95.438,540.783,538.725,0.0
51121.0,STARLINK-3399,PAYLOAD,2024-01-05 02:54:06,15.08840111,0.0001487,53.2166,256.0909,100.2808,259.8352,2.3732e-05,9e-07,0.0,0 STARLINK-3399,1 51121U 22005T   24005.12090479  .00000090  00000-0  23732-4 0  9992,2 51121  53.2166 256.0909 0001487 100.2808 259.8352 15.08840111108928,6917.88,95.438,540.774,538.716,0.0
51121.0,STARLINK-3399,PAYLOAD,2024-01-05 20:23:21,15.08833672,0.0001468,53.2167,252.8191,100.1427,259.9731,6.6066e-05,7.63e-06,0.0,0 STARLINK-3399,1 51121U 22005T   24005.84955016  .00000763  00000-0  66066-4 0  9992,2 51121  53.2167 252.8191 0001468 100.1427 259.9731 15.08833672110144,6917.9,95.438,540.78,538.749,0.0
51121.0,STARLINK-3399,PAYLOAD,2024-01-05 21:58:44,15.08834379,0.0001468,53.2168,252.5218,99.453,260.6628,7.0487e-05,8.34e-06,0.0,0 STARLINK-3399,1 51121U 22005T   24005.91578988  .00000834  00000-0  70487-4 0  9990,2 51121  53.2168 252.5218 0001468  99.4530 260.6628 15.08834379109043,6917.898,95.438,540.778,538.747,0.0
51121.0,STARLINK-3399,PAYLOAD,2024-01-05 23:34:07,15.08835625,0.0001455,53.2169,252.2244,96.7181,263.3977,7.8975e-05,9.69e-06,0.0,0 STARLINK-3399,1 51121U 22005T   24005.98202920  .00000969  00000-0  78975-4 0  9996,2 51121  53.2169 252.2244 0001455  96.7181 263.3977 15.08835625109051,6917.894,95.438,540.765,538.752,0.0
51121.0,STARLINK-3399,PAYLOAD,2024-01-06 21:49:31,15.08837661,0.0001451,53.2168,248.0611,90.326,269.7899,3.3113e-05,2.39e-06,0.0,0 STARLINK-3399,1 51121U 22005T   24006.90939196  .00000239  00000-0  33113-4 0  9996,2 51121  53.2168 248.0611 0001451  90.3260 269.7899 15.08837661109195,6917.888,95.438,540.756,538.749,0.0
51121.0,STARLINK-3399,PAYLOAD,2024-01-07 01:00:17,15.08839153,0.0001472,53.217,247.4663,91.6936,268.4225,4.5105e-05,4.3e-06,0.0,0 STARLINK-3399,1 51121U 22005T   24007.04187076  .00000430  00000-0  45105-4 0  9991,2 51121  53.2170 247.4663 0001472  91.6936 268.4225 15.08839153110329,6917.883,95.438,540.766,538.73,0.0
51121.0,STARLINK-3399,PAYLOAD,2024-01-07 21:40:18,15.08839374,0.0001476,53.217,243.5987,89.7269,270.3892,4.03e-05,3.53e-06,0.0,0 STARLINK-3399,1 51121U 22005T   24007.90299214  .00000353  00000-0  40300-4 0  9990,2 51121  53.2170 243.5987 0001476  89.7269 270.3892 15.08839374109343,6917.882,95.438,540.768,538.726,0.0
51121.0,STARLINK-3399,PAYLOAD,2024-01-08 00:51:04,15.08841731,0.0001384,53.2162,243.0058,94.3091,265.8059,5.2793e-05,5.52e-06,0.0,0 STARLINK-3399,1 51121U 22005T   24008.03546999  .00000552  00000-0  52793-4 0  9990,2 51121  53.2162 243.0058 0001384  94.3091 265.8059 15.08841731109367,6917.875,95.437,540.698,538.783,0.0
51121.0,STARLINK-3399,PAYLOAD,2024-01-08 19:55:42,15.08839307,0.0001344,53.2157,239.4354,102.5507,257.5636,3.842e-05,3.24e-06,0.0,0 STARLINK-3399,1 51121U 22005T   24008.83035191  .00000324  00000-0  38420-4 0  9993,2 51121  53.2157 239.4354 0001344 102.5507 257.5636 15.08839307110591,6917.883,95.438,540.677,538.818,0.0
51121.0,STARLINK-3399,PAYLOAD,2024-01-08 21:31:05,15.08840586,0.0001369,53.2156,239.1376,98.0813,262.0335,5.0539e-05,5.17e-06,0.0,0 STARLINK-3399,1 51121U 22005T   24008.89659098  .00000517  00000-0  50539-4 0  9996,2 51121  53.2156 239.1376 0001369  98.0813 262.0335 15.08840586109492,6917.879,95.438,540.691,538.797,0.0
51121.0,STARLINK-3399,PAYLOAD,2024-01-09 00:41:51,15.08841517,0.0001369,53.2156,238.5424,98.7543,261.3604,5.7507e-05,6.27e-06,0.0,0 STARLINK-3399,1 51121U 22005T   24009.02907005  .00000627  00000-0  57507-4 0  9990,2 51121  53.2156 238.5424 0001369  98.7543 261.3604 15.08841517109515,6917.876,95.437,540.688,538.794,0.0
51121.0,STARLINK-3399,PAYLOAD,2024-01-09 21:21:52,15.08842761,0.0001424,53.2156,234.6761,88.9581,271.1574,6.2884e-05,7.13e-06,0.0,0 STARLINK-3399,1 51121U 22005T   24009.89018957  .00000713  00000-0  62884-4 0  9994,2 51121  53.2156 234.6761 0001424  88.9581 271.1574 15.08842761109642,6917.872,95.437,540.722,538.752,0.0
51121.0,STARLINK-3399,PAYLOAD,2024-01-10 00:32:38,15.08842372,0.0001449,53.2157,234.0826,89.118,270.9978,5.6242e-05,6.07e-06,0.0,0 STARLINK-3399,1 51121U 22005T   24010.02266999  .00000607  00000-0  56242-4 0  9995,2 51121  53.2157 234.0826 0001449  89.1180 270.9978 15.08842372110773,6917.873,95.437,540.741,538.736,0.0
51121.0,STARLINK-3399,PAYLOAD,2024-01-11 00:23:26,15.08838703,0.0001603,53.2167,229.6233,100.8554,259.2618,2.1818e-05,5.9e-07,0.0,0 STARLINK-3399,1 51121U 22005T   24011.01627385  .00000059  00000-0  21818-4 0  9997,2 51121  53.2167 229.6233 0001603 100.8554 259.2618 15.08838703110925,6917.884,95.438,540.858,538.64,0.0
51121.0,STARLINK-3399,PAYLOAD,2024-01-11 14:41:52,15.0886315,0.000127,53.2161,226.953,108.1124,252.0007,0.00012087,1.637e-05,0.0,0 STARLINK-3399,1 51121U 22005T   24011.61241004  .00001637  00000-0  12087-3 0  9993,2 51121  53.2161 226.9530 0001270 108.1124 252.0007 15.08863150109906,6917.81,95.436,540.553,538.796,0.0
51121.0,STARLINK-3399,PAYLOAD,2024-01-11 21:03:27,15.08828449,0.0001424,53.2164,225.7578,102.0102,258.105,-8.8057e-05,-1.689e-05,0.0,0 STARLINK-3399,1 51121U 22005T   24011.87739679 -.00001689  00000-0 -88057-4 0  9991,2 51121  53.2164 225.7578 0001424 102.0102 258.1050 15.08828449109949,6917.916,95.438,540.766,538.796,0.0
51121.0,STARLINK-3399,PAYLOAD,2024-01-12 00:14:13,15.08826952,0.0001425,53.2163,225.163,102.3754,257.7398,-9.9562e-05,-1.872e-05,0.0,0 STARLINK-3399,1 51121U 22005T   24012.00987859 -.00001872  00000-0 -99562-4 0  9999,2 51121  53.2163 225.1630 0001425 102.3754 257.7398 15.08826952111072,6917.92,95.438,540.771,538.799,0.0
51121.0,STARLINK-3399,PAYLOAD,2024-01-12 20:54:14,15.08829953,0.0001317,53.2165,221.2985,102.6831,257.4309,-3.3835e-05,-8.26e-06,0.0,0 STARLINK-3399,1 51121U 22005T   24012.87100021 -.00000826  00000-0 -33835-4 0  9991,2 51121  53.2165 221.2985 0001317 102.6831 257.4309 15.08829953110097,6917.911,95.438,540.687,538.865,0.0
51121.0,STARLINK-3399,PAYLOAD,2024-01-13 12:48:01,15.0895249,0.0001654,53.2162,218.3243,71.8915,288.2258,-0.0017174,-0.00027601,0.0,0 STARLINK-3399,1 51121U 22005T   24013.53335279 -.00027601  00000-0 -17174-2 0  9996,2 51121  53.2162 218.3243 0001654  71.8915 288.2258 15.08952490110191,6917.537,95.43,540.546,538.257,0.0
51121.0,STARLINK-3399,PAYLOAD,2024-01-13 19:09:38,15.08829958,0.0001214,53.2163,217.1362,102.9606,257.1522,0.00018433,2.646e-05,0.0,0 STARLINK-3399,1 51121U 22005T   24013.79835688  .00002646  00000-0  18433-3 0  9993,2 51121  53.2163 217.1362 0001214 102.9606 257.1522 15.08829958111345,6917.911,95.438,540.616,538.936,0.0
51121.0,STARLINK-3399,PAYLOAD,2024-01-13 23:55:47,15.08832519,0.0001222,53.2163,216.244,103.7174,256.3954,0.00020481,2.973e-05,0.0,0 STARLINK-3399,1 51121U 22005T   24013.99707714  .00002973  00000-0  20481-3 0  9992,2 51121  53.2163 216.2440 0001222 103.7174 256.3954 15.08832519110267,6917.903,95.438,540.614,538.923,0.0
51121.0,STARLINK-3399,PAYLOAD,2024-01-14 19:00:24,15.08843468,0.0001151,53.2161,212.676,103.7006,256.4114,0.00019807,2.866e-05,0.0,0 STARLINK-3399,1 51121U 22005T   24014.79195455  .00002866  00000-0  19807-3 0  9995,2 51121  53.2161 212.6760 0001151 103.7006 256.4114 15.08843468111495,6917.87,95.437,540.531,538.939,0.0
51121.0,STARLINK-3399,PAYLOAD,2024-01-14 20:35:47,15.08846179,0.0001154,53.2149,212.3785,97.2073,262.905,0.0002357,3.466e-05,0.0,0 STARLINK-3399,1 51121U 22005T   24014.85819417  .00003466  00000-0  23570-3 0  9992,2 51121  53.2149 212.3785 0001154  97.2073 262.9050 15.08846179110390,6917.862,95.437,540.525,538.928,0.0
51121.0,STARLINK-3399,PAYLOAD,2024-01-15 12:29:39,15.08837199,0.0001223,53.2152,209.405,87.2065,272.9067,2.3977e-06,-2.5e-06,0.0,0 STARLINK-3399,1 51121U 22005T   24015.52059934 -.00000250  00000-0  23977-5 0  9999,2 51121  53.2152 209.4050 0001223  87.2065 272.9067 15.08837199111609,6917.889,95.438,540.6,538.908,0.0
51121.0,STARLINK-3399,PAYLOAD,2024-01-15 20:26:35,15.08833568,0.0001164,53.2152,207.9174,91.9163,268.1962,-3.4727e-05,-8.4e-06,0.0,0 STARLINK-3399,1 51121U 22005T   24015.85180366 -.00000840  00000-0 -34727-4 0  9999,2 51121  53.2152 207.9174 0001164  91.9163 268.1962 15.08833568110543,6917.9,95.438,540.57,538.96,0.0
51121.0,STARLINK-3399,PAYLOAD,2024-01-16 12:20:27,15.08837413,0.0001436,53.2148,204.9427,99.6597,260.4557,8.4185e-06,-1.54e-06,0.0,0 STARLINK-3399,1 51121U 22005T   24016.51420472 -.00000154  00000-0  84185-5 0  9999,2 51121  53.2148 204.9427 0001436  99.6597 260.4557 15.08837413110643,6917.888,95.438,540.747,538.76,0.0
51121.0,STARLINK-3399,PAYLOAD,2024-01-16 18:41:59,15.08843051,0.0001201,53.2151,203.7544,83.6311,276.4818,2.5876e-05,1.24e-06,0.0,0 STARLINK-3399,1 51121U 22005T   24016.77916254  .00000124  00000-0  25876-4 0  9992,2 51121  53.2151 203.7544 0001201  83.6311 276.4818 15.08843051111790,6917.871,95.437,540.567,538.905,0.0
51121.0,STARLINK-3399,PAYLOAD,2024-01-17 16:57:23,15.0884541,0.0001221,53.2153,199.5916,78.7809,281.332,0.00026896,3.996e-05,0.0,0 STARLINK-3399,1 51121U 22005T   24017.70652281  .00003996  00000-0  26896-3 0  9995,2 51121  53.2153 199.5916 0001221  78.7809 281.3320 15.08845410110823,6917.864,95.437,540.574,538.884,0.0
